{
  "type": "FeatureCollection",
  "name": "open_stack_capacity_envelopes",
  "features": [
    {
      "type": "Feature",
      "id": "BLDG-001",
      "properties": {
        "id": "BLDG-001",
        "layer": "BUILDING_FOOTPRINT",
        "source_type": "agent_generated_design",
        "confidence": "medium",
        "geometry_role": "design_proposal",
        "building_type": "mixed_use",
        "name_zh": "适应性复合更新单元",
        "update_action": "conceptual_retain_or_adaptive_reuse",
        "design_role": "capacity_test_envelope",
        "usage_note": "仅用于容量与界面概念测试，不对应现状建筑、地块权属或拆改留结论。",
        "area_sqm_declared": 35586.708
      },
      "geometry": {
        "type": "Polygon",
        "coordinates": [
          [
            [
              116.34185000000001,
              39.94475
            ],
            [
              116.34185000000001,
              39.94725
            ],
            [
              116.34335,
              39.94725
            ],
            [
              116.34335,
              39.94475
            ],
            [
              116.34185000000001,
              39.94475
            ]
          ]
        ]
      }
    },
    {
      "type": "Feature",
      "id": "BLDG-002",
      "properties": {
        "id": "BLDG-002",
        "layer": "BUILDING_FOOTPRINT",
        "source_type": "agent_generated_design",
        "confidence": "medium",
        "geometry_role": "design_proposal",
        "building_type": "retail",
        "name_zh": "智能原生消费单元",
        "update_action": "conceptual_retain_or_adaptive_reuse",
        "design_role": "capacity_test_envelope",
        "usage_note": "仅用于容量与界面概念测试，不对应现状建筑、地块权属或拆改留结论。",
        "area_sqm_declared": 35586.637
      },
      "geometry": {
        "type": "Polygon",
        "coordinates": [
          [
            [
              116.35025,
              39.94475
            ],
            [
              116.35025,
              39.94725
            ],
            [
              116.35175,
              39.94725
            ],
            [
              116.35175,
              39.94475
            ],
            [
              116.35025,
              39.94475
            ]
          ]
        ]
      }
    },
    {
      "type": "Feature",
      "id": "BLDG-003",
      "properties": {
        "id": "BLDG-003",
        "layer": "BUILDING_FOOTPRINT",
        "source_type": "agent_generated_design",
        "confidence": "medium",
        "geometry_role": "design_proposal",
        "building_type": "community_service",
        "name_zh": "社区公共服务单元",
        "update_action": "conceptual_retain_or_adaptive_reuse",
        "design_role": "capacity_test_envelope",
        "usage_note": "仅用于容量与界面概念测试，不对应现状建筑、地块权属或拆改留结论。",
        "area_sqm_declared": 35576.465
      },
      "geometry": {
        "type": "Polygon",
        "coordinates": [
          [
            [
              116.34175,
              39.96475
            ],
            [
              116.34175,
              39.96725
            ],
            [
              116.34325,
              39.96725
            ],
            [
              116.34325,
              39.96475
            ],
            [
              116.34175,
              39.96475
            ]
          ]
        ]
      }
    },
    {
      "type": "Feature",
      "id": "BLDG-004",
      "properties": {
        "id": "BLDG-004",
        "layer": "BUILDING_FOOTPRINT",
        "source_type": "agent_generated_design",
        "confidence": "medium",
        "geometry_role": "design_proposal",
        "building_type": "office",
        "name_zh": "企业服务协同单元",
        "update_action": "conceptual_retain_or_adaptive_reuse",
        "design_role": "capacity_test_envelope",
        "usage_note": "仅用于容量与界面概念测试，不对应现状建筑、地块权属或拆改留结论。",
        "area_sqm_declared": 35576.137
      },
      "geometry": {
        "type": "Polygon",
        "coordinates": [
          [
            [
              116.35035,
              39.965250000000005
            ],
            [
              116.35035,
              39.96775
            ],
            [
              116.35185,
              39.96775
            ],
            [
              116.35185,
              39.965250000000005
            ],
            [
              116.35035,
              39.965250000000005
            ]
          ]
        ]
      }
    },
    {
      "type": "Feature",
      "id": "BLDG-005",
      "properties": {
        "id": "BLDG-005",
        "layer": "BUILDING_FOOTPRINT",
        "source_type": "agent_generated_design",
        "confidence": "medium",
        "geometry_role": "design_proposal",
        "building_type": "education",
        "name_zh": "校研共享单元",
        "update_action": "conceptual_retain_or_adaptive_reuse",
        "design_role": "capacity_test_envelope",
        "usage_note": "仅用于容量与界面概念测试，不对应现状建筑、地块权属或拆改留结论。",
        "area_sqm_declared": 35566.219
      },
      "geometry": {
        "type": "Polygon",
        "coordinates": [
          [
            [
              116.34165,
              39.98475
            ],
            [
              116.34165,
              39.987249999999996
            ],
            [
              116.34315,
              39.987249999999996
            ],
            [
              116.34315,
              39.98475
            ],
            [
              116.34165,
              39.98475
            ]
          ]
        ]
      }
    },
    {
      "type": "Feature",
      "id": "BLDG-006",
      "properties": {
        "id": "BLDG-006",
        "layer": "BUILDING_FOOTPRINT",
        "source_type": "agent_generated_design",
        "confidence": "medium",
        "geometry_role": "design_proposal",
        "building_type": "incubator",
        "name_zh": "开源孵化单元",
        "update_action": "conceptual_retain_or_adaptive_reuse",
        "design_role": "capacity_test_envelope",
        "usage_note": "仅用于容量与界面概念测试，不对应现状建筑、地块权属或拆改留结论。",
        "area_sqm_declared": 35565.891
      },
      "geometry": {
        "type": "Polygon",
        "coordinates": [
          [
            [
              116.35025,
              39.98525
            ],
            [
              116.35025,
              39.98775
            ],
            [
              116.35175,
              39.98775
            ],
            [
              116.35175,
              39.98525
            ],
            [
              116.35025,
              39.98525
            ]
          ]
        ]
      }
    },
    {
      "type": "Feature",
      "id": "BLDG-007",
      "properties": {
        "id": "BLDG-007",
        "layer": "BUILDING_FOOTPRINT",
        "source_type": "agent_generated_design",
        "confidence": "medium",
        "geometry_role": "design_proposal",
        "building_type": "lab",
        "name_zh": "模型评测实验单元",
        "update_action": "conceptual_retain_or_adaptive_reuse",
        "design_role": "capacity_test_envelope",
        "usage_note": "仅用于容量与界面概念测试，不对应现状建筑、地块权属或拆改留结论。",
        "area_sqm_declared": 35553.912
      },
      "geometry": {
        "type": "Polygon",
        "coordinates": [
          [
            [
              116.34205,
              40.00875
            ],
            [
              116.34205,
              40.01125
            ],
            [
              116.34355,
              40.01125
            ],
            [
              116.34355,
              40.00875
            ],
            [
              116.34205,
              40.00875
            ]
          ]
        ]
      }
    },
    {
      "type": "Feature",
      "id": "BLDG-008",
      "properties": {
        "id": "BLDG-008",
        "layer": "BUILDING_FOOTPRINT",
        "source_type": "agent_generated_design",
        "confidence": "medium",
        "geometry_role": "design_proposal",
        "building_type": "ai_r_and_d",
        "name_zh": "全栈研发单元",
        "update_action": "conceptual_retain_or_adaptive_reuse",
        "design_role": "capacity_test_envelope",
        "usage_note": "仅用于容量与界面概念测试，不对应现状建筑、地块权属或拆改留结论。",
        "area_sqm_declared": 35553.844
      },
      "geometry": {
        "type": "Polygon",
        "coordinates": [
          [
            [
              116.35025,
              40.00875
            ],
            [
              116.35025,
              40.01125
            ],
            [
              116.35175,
              40.01125
            ],
            [
              116.35175,
              40.00875
            ],
            [
              116.35025,
              40.00875
            ]
          ]
        ]
      }
    },
    {
      "type": "Feature",
      "id": "BLDG-009",
      "properties": {
        "id": "BLDG-009",
        "layer": "BUILDING_FOOTPRINT",
        "source_type": "agent_generated_design",
        "confidence": "medium",
        "geometry_role": "design_proposal",
        "building_type": "cultural",
        "name_zh": "清河文化展示单元",
        "update_action": "conceptual_retain_or_adaptive_reuse",
        "design_role": "capacity_test_envelope",
        "usage_note": "仅用于容量与界面概念测试，不对应现状建筑、地块权属或拆改留结论。",
        "area_sqm_declared": 33555.088
      },
      "geometry": {
        "type": "Polygon",
        "coordinates": [
          [
            [
              116.34239512195121,
              40.02025
            ],
            [
              116.34375,
              40.02025
            ],
            [
              116.34375,
              40.01775
            ],
            [
              116.3422731707317,
              40.01775
            ],
            [
              116.34239512195121,
              40.02025
            ]
          ]
        ]
      }
    },
    {
      "type": "Feature",
      "id": "BLDG-010",
      "properties": {
        "id": "BLDG-010",
        "layer": "BUILDING_FOOTPRINT",
        "source_type": "agent_generated_design",
        "confidence": "medium",
        "geometry_role": "design_proposal",
        "building_type": "office",
        "name_zh": "AI治理交流单元",
        "update_action": "conceptual_retain_or_adaptive_reuse",
        "design_role": "capacity_test_envelope",
        "usage_note": "仅用于容量与界面概念测试，不对应现状建筑、地块权属或拆改留结论。",
        "area_sqm_declared": 35549.227
      },
      "geometry": {
        "type": "Polygon",
        "coordinates": [
          [
            [
              116.35045000000001,
              40.01775
            ],
            [
              116.35045000000001,
              40.02025
            ],
            [
              116.35195,
              40.02025
            ],
            [
              116.35195,
              40.01775
            ],
            [
              116.35045000000001,
              40.01775
            ]
          ]
        ]
      }
    },
    {
      "type": "Feature",
      "id": "BLDG-011",
      "properties": {
        "id": "BLDG-011",
        "layer": "BUILDING_FOOTPRINT",
        "source_type": "agent_generated_design",
        "confidence": "medium",
        "geometry_role": "design_proposal",
        "building_type": "talent_apartment",
        "name_zh": "人才短住服务单元",
        "update_action": "conceptual_retain_or_adaptive_reuse",
        "design_role": "capacity_test_envelope",
        "usage_note": "仅用于容量与界面概念测试，不对应现状建筑、地块权属或拆改留结论。",
        "area_sqm_declared": 35571.598
      },
      "geometry": {
        "type": "Polygon",
        "coordinates": [
          [
            [
              116.34175,
              39.97425
            ],
            [
              116.34175,
              39.976749999999996
            ],
            [
              116.34325,
              39.976749999999996
            ],
            [
              116.34325,
              39.97425
            ],
            [
              116.34175,
              39.97425
            ]
          ]
        ]
      }
    },
    {
      "type": "Feature",
      "id": "BLDG-012",
      "properties": {
        "id": "BLDG-012",
        "layer": "BUILDING_FOOTPRINT",
        "source_type": "agent_generated_design",
        "confidence": "medium",
        "geometry_role": "design_proposal",
        "building_type": "mobility_hub",
        "name_zh": "多模式接驳单元",
        "update_action": "conceptual_retain_or_adaptive_reuse",
        "design_role": "capacity_test_envelope",
        "usage_note": "仅用于容量与界面概念测试，不对应现状建筑、地块权属或拆改留结论。",
        "area_sqm_declared": 35571.527
      },
      "geometry": {
        "type": "Polygon",
        "coordinates": [
          [
            [
              116.35025,
              39.97425
            ],
            [
              116.35025,
              39.976749999999996
            ],
            [
              116.35175,
              39.976749999999996
            ],
            [
              116.35175,
              39.97425
            ],
            [
              116.35025,
              39.97425
            ]
          ]
        ]
      }
    }
  ]
}
