{
  "type": "FeatureCollection",
  "name": "open_stack_bluegreen",
  "features": [
    {
      "type": "Feature",
      "id": "GREEN-001",
      "properties": {
        "id": "GREEN-001",
        "layer": "GREEN_SPACE",
        "source_type": "agent_generated_design",
        "confidence": "medium",
        "geometry_role": "design_proposal",
        "name_zh": "京张共生绿脊与三条缝合绿链",
        "design_role": "heritage_green_spine_and_cross_links",
        "usage_note": "概念建议，需与文保、绿线、水系和现状树木资料叠合复核。",
        "area_sqm_declared": 3725792.673
      },
      "geometry": {
        "type": "Polygon",
        "coordinates": [
          [
            [
              116.345,
              39.939
            ],
            [
              116.345,
              39.94765
            ],
            [
              116.34119999999999,
              39.94765
            ],
            [
              116.34119999999999,
              39.94835
            ],
            [
              116.345,
              39.94835
            ],
            [
              116.345,
              39.98765
            ],
            [
              116.34119999999999,
              39.98765
            ],
            [
              116.34119999999999,
              39.98835
            ],
            [
              116.345,
              39.98835
            ],
            [
              116.345,
              40.013650000000005
            ],
            [
              116.34207317073171,
              40.013650000000005
            ],
            [
              116.34210731707317,
              40.01435
            ],
            [
              116.345,
              40.01435
            ],
            [
              116.345,
              40.0265
            ],
            [
              116.3493,
              40.0265
            ],
            [
              116.3493,
              40.01435
            ],
            [
              116.3538,
              40.01435
            ],
            [
              116.3538,
              40.013650000000005
            ],
            [
              116.3493,
              40.013650000000005
            ],
            [
              116.3493,
              39.98835
            ],
            [
              116.353432,
              39.98835
            ],
            [
              116.353488,
              39.98765
            ],
            [
              116.3493,
              39.98765
            ],
            [
              116.3493,
              39.94835
            ],
            [
              116.3538,
              39.94835
            ],
            [
              116.3538,
              39.94765
            ],
            [
              116.3493,
              39.94765
            ],
            [
              116.3493,
              39.939
            ],
            [
              116.345,
              39.939
            ]
          ]
        ]
      }
    }
  ]
}
