{
  "type": "FeatureCollection",
  "name": "jingzhang_open_stack_land_use",
  "features": [
    {
      "type": "Feature",
      "id": "LU-001",
      "properties": {
        "id": "LU-001",
        "layer": "LAND_USE",
        "source_type": "agent_generated_design",
        "confidence": "medium",
        "geometry_role": "design_proposal",
        "land_use_code": "0701",
        "name_zh": "人才生活与社区服务",
        "design_role": "conceptual_program_partition",
        "usage_note": "概念性用地组织，不替代法定控规用地或权属边界。",
        "area_sqm_declared": 868797.893
      },
      "geometry": {
        "type": "Polygon",
        "coordinates": [
          [
            [
              116.3407,
              39.939
            ],
            [
              116.34014444444443,
              39.959
            ],
            [
              116.345,
              39.959
            ],
            [
              116.345,
              39.939
            ],
            [
              116.3407,
              39.939
            ]
          ]
        ]
      }
    },
    {
      "type": "Feature",
      "id": "LU-002",
      "properties": {
        "id": "LU-002",
        "layer": "LAND_USE",
        "source_type": "agent_generated_design",
        "confidence": "medium",
        "geometry_role": "design_proposal",
        "land_use_code": "1401",
        "name_zh": "京张文化与生态主脊",
        "design_role": "conceptual_program_partition",
        "usage_note": "概念性用地组织，不替代法定控规用地或权属边界。",
        "area_sqm_declared": 816085.709
      },
      "geometry": {
        "type": "Polygon",
        "coordinates": [
          [
            [
              116.345,
              39.939
            ],
            [
              116.345,
              39.959
            ],
            [
              116.3493,
              39.959
            ],
            [
              116.3493,
              39.939
            ],
            [
              116.345,
              39.939
            ]
          ]
        ]
      }
    },
    {
      "type": "Feature",
      "id": "LU-003",
      "properties": {
        "id": "LU-003",
        "layer": "LAND_USE",
        "source_type": "agent_generated_design",
        "confidence": "medium",
        "geometry_role": "design_proposal",
        "land_use_code": "05",
        "name_zh": "智能原生商业与企业服务",
        "design_role": "conceptual_program_partition",
        "usage_note": "概念性用地组织，不替代法定控规用地或权属边界。",
        "area_sqm_declared": 1138722.875
      },
      "geometry": {
        "type": "Polygon",
        "coordinates": [
          [
            [
              116.3553,
              39.939
            ],
            [
              116.3493,
              39.939
            ],
            [
              116.3493,
              39.959
            ],
            [
              116.3553,
              39.959
            ],
            [
              116.3553,
              39.939
            ]
          ]
        ]
      }
    },
    {
      "type": "Feature",
      "id": "LU-004",
      "properties": {
        "id": "LU-004",
        "layer": "LAND_USE",
        "source_type": "agent_generated_design",
        "confidence": "medium",
        "geometry_role": "design_proposal",
        "land_use_code": "0804",
        "name_zh": "高校协同与学习共享",
        "design_role": "conceptual_program_partition",
        "usage_note": "概念性用地组织，不替代法定控规用地或权属边界。",
        "area_sqm_declared": 1061378.153
      },
      "geometry": {
        "type": "Polygon",
        "coordinates": [
          [
            [
              116.3397,
              39.975
            ],
            [
              116.34008709677418,
              39.981
            ],
            [
              116.345,
              39.981
            ],
            [
              116.345,
              39.959
            ],
            [
              116.34014444444443,
              39.959
            ],
            [
              116.3397,
              39.975
            ]
          ]
        ]
      }
    },
    {
      "type": "Feature",
      "id": "LU-005",
      "properties": {
        "id": "LU-005",
        "layer": "LAND_USE",
        "source_type": "agent_generated_design",
        "confidence": "medium",
        "geometry_role": "design_proposal",
        "land_use_code": "1401",
        "name_zh": "开源成果公共展示廊",
        "design_role": "conceptual_program_partition",
        "usage_note": "概念性用地组织，不替代法定控规用地或权属边界。",
        "area_sqm_declared": 897422.939
      },
      "geometry": {
        "type": "Polygon",
        "coordinates": [
          [
            [
              116.345,
              39.959
            ],
            [
              116.345,
              39.981
            ],
            [
              116.3493,
              39.981
            ],
            [
              116.3493,
              39.959
            ],
            [
              116.345,
              39.959
            ]
          ]
        ]
      }
    },
    {
      "type": "Feature",
      "id": "LU-006",
      "properties": {
        "id": "LU-006",
        "layer": "LAND_USE",
        "source_type": "agent_generated_design",
        "confidence": "medium",
        "geometry_role": "design_proposal",
        "land_use_code": "0802",
        "name_zh": "AI原点校研转化",
        "design_role": "conceptual_program_partition",
        "usage_note": "概念性用地组织，不替代法定控规用地或权属边界。",
        "area_sqm_declared": 1155088.762
      },
      "geometry": {
        "type": "Polygon",
        "coordinates": [
          [
            [
              116.3553,
              39.965
            ],
            [
              116.3553,
              39.959
            ],
            [
              116.3493,
              39.959
            ],
            [
              116.3493,
              39.981
            ],
            [
              116.35402,
              39.981
            ],
            [
              116.3553,
              39.965
            ]
          ]
        ]
      }
    },
    {
      "type": "Feature",
      "id": "LU-007",
      "properties": {
        "id": "LU-007",
        "layer": "LAND_USE",
        "source_type": "agent_generated_design",
        "confidence": "medium",
        "geometry_role": "design_proposal",
        "land_use_code": "0802",
        "name_zh": "研发与公共测试支撑",
        "design_role": "conceptual_program_partition",
        "usage_note": "概念性用地组织，不替代法定控规用地或权属边界。",
        "area_sqm_declared": 876972.015
      },
      "geometry": {
        "type": "Polygon",
        "coordinates": [
          [
            [
              116.3415064516129,
              40.003
            ],
            [
              116.345,
              40.003
            ],
            [
              116.345,
              39.981
            ],
            [
              116.34008709677418,
              39.981
            ],
            [
              116.3415064516129,
              40.003
            ]
          ]
        ]
      }
    },
    {
      "type": "Feature",
      "id": "LU-008",
      "properties": {
        "id": "LU-008",
        "layer": "LAND_USE",
        "source_type": "agent_generated_design",
        "confidence": "medium",
        "geometry_role": "design_proposal",
        "land_use_code": "1401",
        "name_zh": "场景验证与慢行主脊",
        "design_role": "conceptual_program_partition",
        "usage_note": "概念性用地组织，不替代法定控规用地或权属边界。",
        "area_sqm_declared": 897138.548
      },
      "geometry": {
        "type": "Polygon",
        "coordinates": [
          [
            [
              116.345,
              39.981
            ],
            [
              116.345,
              40.003
            ],
            [
              116.3493,
              40.003
            ],
            [
              116.3493,
              39.981
            ],
            [
              116.345,
              39.981
            ]
          ]
        ]
      }
    },
    {
      "type": "Feature",
      "id": "LU-009",
      "properties": {
        "id": "LU-009",
        "layer": "LAND_USE",
        "source_type": "agent_generated_design",
        "confidence": "medium",
        "geometry_role": "design_proposal",
        "land_use_code": "0702",
        "name_zh": "人才公共服务接口",
        "design_role": "conceptual_program_partition",
        "usage_note": "概念性用地组织，不替代法定控规用地或权属边界。",
        "area_sqm_declared": 909179.649
      },
      "geometry": {
        "type": "Polygon",
        "coordinates": [
          [
            [
              116.3533,
              39.99
            ],
            [
              116.35402,
              39.981
            ],
            [
              116.3493,
              39.981
            ],
            [
              116.3493,
              40.003
            ],
            [
              116.35401232876713,
              40.003
            ],
            [
              116.3533,
              39.99
            ]
          ]
        ]
      }
    },
    {
      "type": "Feature",
      "id": "LU-010",
      "properties": {
        "id": "LU-010",
        "layer": "LAND_USE",
        "source_type": "agent_generated_design",
        "confidence": "medium",
        "geometry_role": "design_proposal",
        "land_use_code": "0802",
        "name_zh": "全栈自主创新与评测",
        "design_role": "conceptual_program_partition",
        "usage_note": "概念性用地组织，不替代法定控规用地或权属边界。",
        "area_sqm_declared": 640800.339
      },
      "geometry": {
        "type": "Polygon",
        "coordinates": [
          [
            [
              116.3417,
              40.006
            ],
            [
              116.3427,
              40.0265
            ],
            [
              116.345,
              40.0265
            ],
            [
              116.345,
              40.003
            ],
            [
              116.3415064516129,
              40.003
            ],
            [
              116.3417,
              40.006
            ]
          ]
        ]
      }
    },
    {
      "type": "Feature",
      "id": "LU-011",
      "properties": {
        "id": "LU-011",
        "layer": "LAND_USE",
        "source_type": "agent_generated_design",
        "confidence": "medium",
        "geometry_role": "design_proposal",
        "land_use_code": "1401",
        "name_zh": "清河文化与低碳公共空间",
        "design_role": "conceptual_program_partition",
        "usage_note": "概念性用地组织，不替代法定控规用地或权属边界。",
        "area_sqm_declared": 957992.795
      },
      "geometry": {
        "type": "Polygon",
        "coordinates": [
          [
            [
              116.3493,
              40.0265
            ],
            [
              116.3493,
              40.003
            ],
            [
              116.345,
              40.003
            ],
            [
              116.345,
              40.0265
            ],
            [
              116.3493,
              40.0265
            ]
          ]
        ]
      }
    },
    {
      "type": "Feature",
      "id": "LU-012",
      "properties": {
        "id": "LU-012",
        "layer": "LAND_USE",
        "source_type": "agent_generated_design",
        "confidence": "medium",
        "geometry_role": "design_proposal",
        "land_use_code": "0803",
        "name_zh": "AI治理与国际交流",
        "design_role": "conceptual_program_partition",
        "usage_note": "概念性用地组织，不替代法定控规用地或权属边界。",
        "area_sqm_declared": 1193269.424
      },
      "geometry": {
        "type": "Polygon",
        "coordinates": [
          [
            [
              116.3553,
              40.0265
            ],
            [
              116.35401232876713,
              40.003
            ],
            [
              116.3493,
              40.003
            ],
            [
              116.3493,
              40.0265
            ],
            [
              116.3553,
              40.0265
            ]
          ]
        ]
      }
    }
  ]
}
