{
  "type": "FeatureCollection",
  "name": "open_stack_phasing",
  "features": [
    {
      "type": "Feature",
      "id": "PHASE-001",
      "properties": {
        "id": "PHASE-001",
        "layer": "PHASE",
        "source_type": "agent_generated_design",
        "confidence": "medium",
        "geometry_role": "design_proposal",
        "phase": 1,
        "name_zh": "近期：开放接口与可逆公共空间",
        "usage_note": "概念性优先序，不构成政府投资、审批或开工承诺。",
        "area_sqm_declared": 4411679.412
      },
      "geometry": {
        "type": "Polygon",
        "coordinates": [
          [
            [
              116.3553,
              39.965
            ],
            [
              116.3553,
              39.939
            ],
            [
              116.3407,
              39.939
            ],
            [
              116.33983888888888,
              39.97
            ],
            [
              116.3549,
              39.97
            ],
            [
              116.3553,
              39.965
            ]
          ]
        ]
      }
    },
    {
      "type": "Feature",
      "id": "PHASE-002",
      "properties": {
        "id": "PHASE-002",
        "layer": "PHASE",
        "source_type": "agent_generated_design",
        "confidence": "medium",
        "geometry_role": "design_proposal",
        "phase": 2,
        "name_zh": "中期：校研转化与场景网络",
        "usage_note": "概念性优先序，不构成政府投资、审批或开工承诺。",
        "area_sqm_declared": 4090478.872
      },
      "geometry": {
        "type": "Polygon",
        "coordinates": [
          [
            [
              116.3533,
              39.99
            ],
            [
              116.3549,
              39.97
            ],
            [
              116.33983888888888,
              39.97
            ],
            [
              116.3397,
              39.975
            ],
            [
              116.34144193548387,
              40.002
            ],
            [
              116.35395753424658,
              40.002
            ],
            [
              116.3533,
              39.99
            ]
          ]
        ]
      }
    },
    {
      "type": "Feature",
      "id": "PHASE-003",
      "properties": {
        "id": "PHASE-003",
        "layer": "PHASE",
        "source_type": "agent_generated_design",
        "confidence": "medium",
        "geometry_role": "design_proposal",
        "phase": 3,
        "name_zh": "远期：全栈验证与国际协作",
        "usage_note": "概念性优先序，不构成政府投资、审批或开工承诺。",
        "area_sqm_declared": 2910687.936
      },
      "geometry": {
        "type": "Polygon",
        "coordinates": [
          [
            [
              116.3417,
              40.006
            ],
            [
              116.3427,
              40.0265
            ],
            [
              116.3553,
              40.0265
            ],
            [
              116.35395753424658,
              40.002
            ],
            [
              116.34144193548387,
              40.002
            ],
            [
              116.3417,
              40.006
            ]
          ]
        ]
      }
    }
  ]
}
