{
  "type": "FeatureCollection",
  "name": "open_stack_public_interfaces",
  "features": [
    {
      "type": "Feature",
      "id": "PS-001",
      "properties": {
        "id": "PS-001",
        "layer": "PUBLIC_SPACE",
        "source_type": "agent_generated_design",
        "confidence": "medium",
        "geometry_role": "design_proposal",
        "name_zh": "公共模型评测场",
        "design_role": "public_interface_node",
        "usage_note": "概念性公共空间组件，选址与规模需专业团队深化。",
        "area_sqm_declared": 54250.209
      },
      "geometry": {
        "type": "Polygon",
        "coordinates": [
          [
            [
              116.34854787620027,
              40.016924304896236
            ],
            [
              116.34854151148336,
              40.01684884795726
            ],
            [
              116.348530925875,
              40.01677386659854
            ],
            [
              116.34851615268144,
              40.01669959673916
            ],
            [
              116.34849723838462,
              40.01662627205958
            ],
            [
              116.34847424249591,
              40.01655412326637
            ],
            [
              116.34844723736889,
              40.01648337736631
            ],
            [
              116.34841630797168,
              40.016414256952196
            ],
            [
              116.34838155161958,
              40.01634697950241
            ],
            [
              116.34834307766896,
              40.016281756696706
            ],
            [
              116.34830100717309,
              40.01621879375016
            ],
            [
              116.34825547250134,
              40.01615828876749
            ],
            [
              116.3482066169226,
              40.01610043211977
            ],
            [
              116.34815459415461,
              40.016045405845404
            ],
            [
              116.34809956788024,
              40.01599338307741
            ],
            [
              116.34804171123251,
              40.01594452749867
            ],
            [
              116.34798120624984,
              40.015898992826905
            ],
            [
              116.3479182433033,
              40.01585692233105
            ],
            [
              116.3478530204976,
              40.01581844838043
            ],
            [
              116.34778574304781,
              40.015783692028336
            ],
            [
              116.3477166226337,
              40.01575276263111
            ],
            [
              116.34764587673364,
              40.015725757504086
            ],
            [
              116.34757372794043,
              40.01570276161538
            ],
            [
              116.34750040326084,
              40.015683847318556
            ],
            [
              116.34742613340146,
              40.015669074125
            ],
            [
              116.34735115204273,
              40.01565848851665
            ],
            [
              116.34727569510378,
              40.01565212379973
            ],
            [
              116.3472,
              40.01565
            ],
            [
              116.34712430489623,
              40.01565212379973
            ],
            [
              116.34704884795727,
              40.01565848851665
            ],
            [
              116.34697386659855,
              40.015669074125
            ],
            [
              116.34689959673916,
              40.015683847318556
            ],
            [
              116.34682627205957,
              40.01570276161538
            ],
            [
              116.34675412326636,
              40.015725757504086
            ],
            [
              116.3466833773663,
              40.01575276263111
            ],
            [
              116.3466142569522,
              40.015783692028336
            ],
            [
              116.3465469795024,
              40.01581844838043
            ],
            [
              116.3464817566967,
              40.01585692233105
            ],
            [
              116.34641879375016,
              40.015898992826905
            ],
            [
              116.34635828876749,
              40.01594452749867
            ],
            [
              116.34630043211976,
              40.01599338307741
            ],
            [
              116.3462454058454,
              40.016045405845404
            ],
            [
              116.3461933830774,
              40.01610043211977
            ],
            [
              116.34614452749867,
              40.01615828876749
            ],
            [
              116.34609899282691,
              40.01621879375016
            ],
            [
              116.34605692233104,
              40.016281756696706
            ],
            [
              116.34601844838042,
              40.01634697950241
            ],
            [
              116.34598369202833,
              40.016414256952196
            ],
            [
              116.34595276263111,
              40.01648337736631
            ],
            [
              116.34592575750409,
              40.01655412326637
            ],
            [
              116.34590276161538,
              40.01662627205958
            ],
            [
              116.34588384731856,
              40.01669959673916
            ],
            [
              116.345869074125,
              40.01677386659854
            ],
            [
              116.34585848851664,
              40.01684884795726
            ],
            [
              116.34585212379973,
              40.016924304896236
            ],
            [
              116.34585,
              40.017
            ],
            [
              116.34585212379973,
              40.01707569510377
            ],
            [
              116.34585848851664,
              40.01715115204274
            ],
            [
              116.345869074125,
              40.017226133401465
            ],
            [
              116.34588384731856,
              40.01730040326085
            ],
            [
              116.34590276161538,
              40.017373727940424
            ],
            [
              116.34592575750409,
              40.01744587673364
            ],
            [
              116.34595276263111,
              40.01751662263369
            ],
            [
              116.34598369202833,
              40.01758574304781
            ],
            [
              116.34601844838042,
              40.0176530204976
            ],
            [
              116.34605692233104,
              40.0177182433033
            ],
            [
              116.34609899282691,
              40.01778120624984
            ],
            [
              116.34614452749867,
              40.01784171123251
            ],
            [
              116.3461933830774,
              40.017899567880235
            ],
            [
              116.3462454058454,
              40.0179545941546
            ],
            [
              116.34630043211976,
              40.0180066169226
            ],
            [
              116.34635828876749,
              40.01805547250134
            ],
            [
              116.34641879375016,
              40.0181010071731
            ],
            [
              116.3464817566967,
              40.01814307766896
            ],
            [
              116.3465469795024,
              40.01818155161958
            ],
            [
              116.3466142569522,
              40.01821630797167
            ],
            [
              116.3466833773663,
              40.0182472373689
            ],
            [
              116.34675412326636,
              40.01827424249592
            ],
            [
              116.34682627205957,
              40.018297238384626
            ],
            [
              116.34689959673916,
              40.01831615268145
            ],
            [
              116.34697386659855,
              40.018330925875006
            ],
            [
              116.34704884795727,
              40.01834151148336
            ],
            [
              116.34712430489623,
              40.018347876200274
            ],
            [
              116.3472,
              40.018350000000005
            ],
            [
              116.34727569510378,
              40.018347876200274
            ],
            [
              116.34735115204273,
              40.01834151148336
            ],
            [
              116.34742613340146,
              40.018330925875006
            ],
            [
              116.34750040326084,
              40.01831615268145
            ],
            [
              116.34757372794043,
              40.018297238384626
            ],
            [
              116.34764587673364,
              40.01827424249592
            ],
            [
              116.3477166226337,
              40.0182472373689
            ],
            [
              116.34778574304781,
              40.01821630797167
            ],
            [
              116.3478530204976,
              40.01818155161958
            ],
            [
              116.3479182433033,
              40.01814307766896
            ],
            [
              116.34798120624984,
              40.0181010071731
            ],
            [
              116.34804171123251,
              40.01805547250134
            ],
            [
              116.34809956788024,
              40.0180066169226
            ],
            [
              116.34815459415461,
              40.0179545941546
            ],
            [
              116.3482066169226,
              40.017899567880235
            ],
            [
              116.34825547250134,
              40.01784171123251
            ],
            [
              116.34830100717309,
              40.01778120624984
            ],
            [
              116.34834307766896,
              40.0177182433033
            ],
            [
              116.34838155161958,
              40.0176530204976
            ],
            [
              116.34841630797168,
              40.01758574304781
            ],
            [
              116.34844723736889,
              40.01751662263369
            ],
            [
              116.34847424249591,
              40.01744587673364
            ],
            [
              116.34849723838462,
              40.017373727940424
            ],
            [
              116.34851615268144,
              40.01730040326085
            ],
            [
              116.348530925875,
              40.017226133401465
            ],
            [
              116.34854151148336,
              40.01715115204274
            ],
            [
              116.34854787620027,
              40.01707569510377
            ],
            [
              116.34855,
              40.017
            ],
            [
              116.34854787620027,
              40.016924304896236
            ]
          ]
        ]
      }
    },
    {
      "type": "Feature",
      "id": "PS-002",
      "properties": {
        "id": "PS-002",
        "layer": "PUBLIC_SPACE",
        "source_type": "agent_generated_design",
        "confidence": "medium",
        "geometry_role": "design_proposal",
        "name_zh": "开源原点广场",
        "design_role": "public_interface_node",
        "usage_note": "概念性公共空间组件，选址与规模需专业团队深化。",
        "area_sqm_declared": 54272.505
      },
      "geometry": {
        "type": "Polygon",
        "coordinates": [
          [
            [
              116.34864787620027,
              39.988424304896235
            ],
            [
              116.34864151148336,
              39.98834884795726
            ],
            [
              116.348630925875,
              39.98827386659854
            ],
            [
              116.34861615268144,
              39.98819959673916
            ],
            [
              116.34859723838463,
              39.98812627205958
            ],
            [
              116.34857424249591,
              39.988054123266366
            ],
            [
              116.34854723736889,
              39.98798337736631
            ],
            [
              116.34851630797168,
              39.987914256952195
            ],
            [
              116.34848155161959,
              39.98784697950241
            ],
            [
              116.34844307766896,
              39.987781756696705
            ],
            [
              116.3484010071731,
              39.98771879375016
            ],
            [
              116.34835547250134,
              39.98765828876749
            ],
            [
              116.3483066169226,
              39.98760043211977
            ],
            [
              116.34825459415461,
              39.9875454058454
            ],
            [
              116.34819956788024,
              39.98749338307741
            ],
            [
              116.34814171123251,
              39.98744452749867
            ],
            [
              116.34808120624984,
              39.987398992826904
            ],
            [
              116.3480182433033,
              39.987356922331045
            ],
            [
              116.3479530204976,
              39.98731844838043
            ],
            [
              116.34788574304781,
              39.987283692028335
            ],
            [
              116.3478166226337,
              39.98725276263111
            ],
            [
              116.34774587673364,
              39.987225757504085
            ],
            [
              116.34767372794043,
              39.98720276161538
            ],
            [
              116.34760040326084,
              39.987183847318555
            ],
            [
              116.34752613340146,
              39.987169074125
            ],
            [
              116.34745115204274,
              39.98715848851665
            ],
            [
              116.34737569510378,
              39.98715212379973
            ],
            [
              116.3473,
              39.98715
            ],
            [
              116.34722430489623,
              39.98715212379973
            ],
            [
              116.34714884795727,
              39.98715848851665
            ],
            [
              116.34707386659855,
              39.987169074125
            ],
            [
              116.34699959673917,
              39.987183847318555
            ],
            [
              116.34692627205958,
              39.98720276161538
            ],
            [
              116.34685412326637,
              39.987225757504085
            ],
            [
              116.34678337736631,
              39.98725276263111
            ],
            [
              116.3467142569522,
              39.987283692028335
            ],
            [
              116.34664697950241,
              39.98731844838043
            ],
            [
              116.34658175669671,
              39.987356922331045
            ],
            [
              116.34651879375016,
              39.987398992826904
            ],
            [
              116.3464582887675,
              39.98744452749867
            ],
            [
              116.34640043211976,
              39.98749338307741
            ],
            [
              116.3463454058454,
              39.9875454058454
            ],
            [
              116.34629338307741,
              39.98760043211977
            ],
            [
              116.34624452749867,
              39.98765828876749
            ],
            [
              116.34619899282691,
              39.98771879375016
            ],
            [
              116.34615692233105,
              39.987781756696705
            ],
            [
              116.34611844838042,
              39.98784697950241
            ],
            [
              116.34608369202833,
              39.987914256952195
            ],
            [
              116.34605276263112,
              39.98798337736631
            ],
            [
              116.3460257575041,
              39.988054123266366
            ],
            [
              116.34600276161538,
              39.98812627205958
            ],
            [
              116.34598384731856,
              39.98819959673916
            ],
            [
              116.34596907412501,
              39.98827386659854
            ],
            [
              116.34595848851664,
              39.98834884795726
            ],
            [
              116.34595212379973,
              39.988424304896235
            ],
            [
              116.34595,
              39.9885
            ],
            [
              116.34595212379973,
              39.98857569510377
            ],
            [
              116.34595848851664,
              39.98865115204274
            ],
            [
              116.34596907412501,
              39.988726133401464
            ],
            [
              116.34598384731856,
              39.988800403260846
            ],
            [
              116.34600276161538,
              39.98887372794042
            ],
            [
              116.3460257575041,
              39.98894587673364
            ],
            [
              116.34605276263112,
              39.98901662263369
            ],
            [
              116.34608369202833,
              39.98908574304781
            ],
            [
              116.34611844838042,
              39.9891530204976
            ],
            [
              116.34615692233105,
              39.9892182433033
            ],
            [
              116.34619899282691,
              39.98928120624984
            ],
            [
              116.34624452749867,
              39.98934171123251
            ],
            [
              116.34629338307741,
              39.989399567880234
            ],
            [
              116.3463454058454,
              39.9894545941546
            ],
            [
              116.34640043211976,
              39.9895066169226
            ],
            [
              116.3464582887675,
              39.98955547250134
            ],
            [
              116.34651879375016,
              39.9896010071731
            ],
            [
              116.34658175669671,
              39.98964307766896
            ],
            [
              116.34664697950241,
              39.989681551619576
            ],
            [
              116.3467142569522,
              39.98971630797167
            ],
            [
              116.34678337736631,
              39.989747237368896
            ],
            [
              116.34685412326637,
              39.98977424249592
            ],
            [
              116.34692627205958,
              39.989797238384625
            ],
            [
              116.34699959673917,
              39.98981615268145
            ],
            [
              116.34707386659855,
              39.989830925875005
            ],
            [
              116.34714884795727,
              39.989841511483355
            ],
            [
              116.34722430489623,
              39.98984787620027
            ],
            [
              116.3473,
              39.989850000000004
            ],
            [
              116.34737569510378,
              39.98984787620027
            ],
            [
              116.34745115204274,
              39.989841511483355
            ],
            [
              116.34752613340146,
              39.989830925875005
            ],
            [
              116.34760040326084,
              39.98981615268145
            ],
            [
              116.34767372794043,
              39.989797238384625
            ],
            [
              116.34774587673364,
              39.98977424249592
            ],
            [
              116.3478166226337,
              39.989747237368896
            ],
            [
              116.34788574304781,
              39.98971630797167
            ],
            [
              116.3479530204976,
              39.989681551619576
            ],
            [
              116.3480182433033,
              39.98964307766896
            ],
            [
              116.34808120624984,
              39.9896010071731
            ],
            [
              116.34814171123251,
              39.98955547250134
            ],
            [
              116.34819956788024,
              39.9895066169226
            ],
            [
              116.34825459415461,
              39.9894545941546
            ],
            [
              116.3483066169226,
              39.989399567880234
            ],
            [
              116.34835547250134,
              39.98934171123251
            ],
            [
              116.3484010071731,
              39.98928120624984
            ],
            [
              116.34844307766896,
              39.9892182433033
            ],
            [
              116.34848155161959,
              39.9891530204976
            ],
            [
              116.34851630797168,
              39.98908574304781
            ],
            [
              116.34854723736889,
              39.98901662263369
            ],
            [
              116.34857424249591,
              39.98894587673364
            ],
            [
              116.34859723838463,
              39.98887372794042
            ],
            [
              116.34861615268144,
              39.988800403260846
            ],
            [
              116.348630925875,
              39.988726133401464
            ],
            [
              116.34864151148336,
              39.98865115204274
            ],
            [
              116.34864787620027,
              39.98857569510377
            ],
            [
              116.34865,
              39.9885
            ],
            [
              116.34864787620027,
              39.988424304896235
            ]
          ]
        ]
      }
    },
    {
      "type": "Feature",
      "id": "PS-003",
      "properties": {
        "id": "PS-003",
        "layer": "PUBLIC_SPACE",
        "source_type": "agent_generated_design",
        "confidence": "medium",
        "geometry_role": "design_proposal",
        "name_zh": "智能生活发布厅",
        "design_role": "public_interface_node",
        "usage_note": "概念性公共空间组件，选址与规模需专业团队深化。",
        "area_sqm_declared": 54304.946
      },
      "geometry": {
        "type": "Polygon",
        "coordinates": [
          [
            [
              116.34874787620026,
              39.946924304896235
            ],
            [
              116.34874151148335,
              39.94684884795726
            ],
            [
              116.34873092587499,
              39.94677386659854
            ],
            [
              116.34871615268143,
              39.94669959673916
            ],
            [
              116.34869723838462,
              39.94662627205958
            ],
            [
              116.3486742424959,
              39.94655412326637
            ],
            [
              116.34864723736888,
              39.94648337736631
            ],
            [
              116.34861630797167,
              39.946414256952195
            ],
            [
              116.34858155161957,
              39.94634697950241
            ],
            [
              116.34854307766895,
              39.946281756696706
            ],
            [
              116.34850100717308,
              39.94621879375016
            ],
            [
              116.34845547250133,
              39.94615828876749
            ],
            [
              116.34840661692259,
              39.94610043211977
            ],
            [
              116.3483545941546,
              39.9460454058454
            ],
            [
              116.34829956788023,
              39.94599338307741
            ],
            [
              116.3482417112325,
              39.94594452749867
            ],
            [
              116.34818120624983,
              39.945898992826905
            ],
            [
              116.34811824330329,
              39.945856922331046
            ],
            [
              116.34805302049759,
              39.94581844838043
            ],
            [
              116.3479857430478,
              39.945783692028336
            ],
            [
              116.34791662263369,
              39.94575276263111
            ],
            [
              116.34784587673363,
              39.945725757504086
            ],
            [
              116.34777372794042,
              39.94570276161538
            ],
            [
              116.34770040326083,
              39.945683847318556
            ],
            [
              116.34762613340145,
              39.945669074125
            ],
            [
              116.34755115204273,
              39.94565848851665
            ],
            [
              116.34747569510377,
              39.94565212379973
            ],
            [
              116.3474,
              39.94565
            ],
            [
              116.34732430489622,
              39.94565212379973
            ],
            [
              116.34724884795726,
              39.94565848851665
            ],
            [
              116.34717386659854,
              39.945669074125
            ],
            [
              116.34709959673916,
              39.945683847318556
            ],
            [
              116.34702627205957,
              39.94570276161538
            ],
            [
              116.34695412326636,
              39.945725757504086
            ],
            [
              116.3468833773663,
              39.94575276263111
            ],
            [
              116.34681425695219,
              39.945783692028336
            ],
            [
              116.3467469795024,
              39.94581844838043
            ],
            [
              116.3466817566967,
              39.945856922331046
            ],
            [
              116.34661879375015,
              39.945898992826905
            ],
            [
              116.34655828876748,
              39.94594452749867
            ],
            [
              116.34650043211975,
              39.94599338307741
            ],
            [
              116.34644540584539,
              39.9460454058454
            ],
            [
              116.3463933830774,
              39.94610043211977
            ],
            [
              116.34634452749866,
              39.94615828876749
            ],
            [
              116.3462989928269,
              39.94621879375016
            ],
            [
              116.34625692233104,
              39.946281756696706
            ],
            [
              116.34621844838041,
              39.94634697950241
            ],
            [
              116.34618369202832,
              39.946414256952195
            ],
            [
              116.3461527626311,
              39.94648337736631
            ],
            [
              116.34612575750408,
              39.94655412326637
            ],
            [
              116.34610276161537,
              39.94662627205958
            ],
            [
              116.34608384731855,
              39.94669959673916
            ],
            [
              116.346069074125,
              39.94677386659854
            ],
            [
              116.34605848851663,
              39.94684884795726
            ],
            [
              116.34605212379972,
              39.946924304896235
            ],
            [
              116.34604999999999,
              39.947
            ],
            [
              116.34605212379972,
              39.94707569510377
            ],
            [
              116.34605848851663,
              39.94715115204274
            ],
            [
              116.346069074125,
              39.947226133401465
            ],
            [
              116.34608384731855,
              39.94730040326085
            ],
            [
              116.34610276161537,
              39.94737372794042
            ],
            [
              116.34612575750408,
              39.94744587673364
            ],
            [
              116.3461527626311,
              39.94751662263369
            ],
            [
              116.34618369202832,
              39.94758574304781
            ],
            [
              116.34621844838041,
              39.9476530204976
            ],
            [
              116.34625692233104,
              39.9477182433033
            ],
            [
              116.3462989928269,
              39.94778120624984
            ],
            [
              116.34634452749866,
              39.94784171123251
            ],
            [
              116.3463933830774,
              39.947899567880235
            ],
            [
              116.34644540584539,
              39.9479545941546
            ],
            [
              116.34650043211975,
              39.9480066169226
            ],
            [
              116.34655828876748,
              39.94805547250134
            ],
            [
              116.34661879375015,
              39.9481010071731
            ],
            [
              116.3466817566967,
              39.94814307766896
            ],
            [
              116.3467469795024,
              39.94818155161958
            ],
            [
              116.34681425695219,
              39.94821630797167
            ],
            [
              116.3468833773663,
              39.948247237368896
            ],
            [
              116.34695412326636,
              39.94827424249592
            ],
            [
              116.34702627205957,
              39.948297238384626
            ],
            [
              116.34709959673916,
              39.94831615268145
            ],
            [
              116.34717386659854,
              39.948330925875005
            ],
            [
              116.34724884795726,
              39.948341511483356
            ],
            [
              116.34732430489622,
              39.94834787620027
            ],
            [
              116.3474,
              39.948350000000005
            ],
            [
              116.34747569510377,
              39.94834787620027
            ],
            [
              116.34755115204273,
              39.948341511483356
            ],
            [
              116.34762613340145,
              39.948330925875005
            ],
            [
              116.34770040326083,
              39.94831615268145
            ],
            [
              116.34777372794042,
              39.948297238384626
            ],
            [
              116.34784587673363,
              39.94827424249592
            ],
            [
              116.34791662263369,
              39.948247237368896
            ],
            [
              116.3479857430478,
              39.94821630797167
            ],
            [
              116.34805302049759,
              39.94818155161958
            ],
            [
              116.34811824330329,
              39.94814307766896
            ],
            [
              116.34818120624983,
              39.9481010071731
            ],
            [
              116.3482417112325,
              39.94805547250134
            ],
            [
              116.34829956788023,
              39.9480066169226
            ],
            [
              116.3483545941546,
              39.9479545941546
            ],
            [
              116.34840661692259,
              39.947899567880235
            ],
            [
              116.34845547250133,
              39.94784171123251
            ],
            [
              116.34850100717308,
              39.94778120624984
            ],
            [
              116.34854307766895,
              39.9477182433033
            ],
            [
              116.34858155161957,
              39.9476530204976
            ],
            [
              116.34861630797167,
              39.94758574304781
            ],
            [
              116.34864723736888,
              39.94751662263369
            ],
            [
              116.3486742424959,
              39.94744587673364
            ],
            [
              116.34869723838462,
              39.94737372794042
            ],
            [
              116.34871615268143,
              39.94730040326085
            ],
            [
              116.34873092587499,
              39.947226133401465
            ],
            [
              116.34874151148335,
              39.94715115204274
            ],
            [
              116.34874787620026,
              39.94707569510377
            ],
            [
              116.34875,
              39.947
            ],
            [
              116.34874787620026,
              39.946924304896235
            ]
          ]
        ]
      }
    },
    {
      "type": "Feature",
      "id": "PS-004",
      "properties": {
        "id": "PS-004",
        "layer": "PUBLIC_SPACE",
        "source_type": "agent_generated_design",
        "confidence": "medium",
        "geometry_role": "design_proposal",
        "name_zh": "京张百年接口站",
        "design_role": "public_interface_node",
        "usage_note": "概念性公共空间组件，选址与规模需专业团队深化。",
        "area_sqm_declared": 54287.365
      },
      "geometry": {
        "type": "Polygon",
        "coordinates": [
          [
            [
              116.34834787620026,
              39.96942430489623
            ],
            [
              116.34834151148335,
              39.96934884795726
            ],
            [
              116.34833092587499,
              39.969273866598535
            ],
            [
              116.34831615268143,
              39.96919959673915
            ],
            [
              116.34829723838462,
              39.969126272059576
            ],
            [
              116.3482742424959,
              39.96905412326636
            ],
            [
              116.34824723736888,
              39.96898337736631
            ],
            [
              116.34821630797167,
              39.96891425695219
            ],
            [
              116.34818155161958,
              39.9688469795024
            ],
            [
              116.34814307766895,
              39.9687817566967
            ],
            [
              116.34810100717309,
              39.968718793750156
            ],
            [
              116.34805547250133,
              39.968658288767486
            ],
            [
              116.34800661692259,
              39.968600432119764
            ],
            [
              116.3479545941546,
              39.9685454058454
            ],
            [
              116.34789956788023,
              39.9684933830774
            ],
            [
              116.3478417112325,
              39.96844452749866
            ],
            [
              116.34778120624983,
              39.9683989928269
            ],
            [
              116.34771824330329,
              39.96835692233104
            ],
            [
              116.34765302049759,
              39.96831844838042
            ],
            [
              116.3475857430478,
              39.96828369202833
            ],
            [
              116.34751662263369,
              39.9682527626311
            ],
            [
              116.34744587673363,
              39.96822575750408
            ],
            [
              116.34737372794042,
              39.96820276161537
            ],
            [
              116.34730040326083,
              39.96818384731855
            ],
            [
              116.34722613340145,
              39.968169074124994
            ],
            [
              116.34715115204273,
              39.96815848851664
            ],
            [
              116.34707569510377,
              39.968152123799726
            ],
            [
              116.347,
              39.968149999999994
            ],
            [
              116.34692430489622,
              39.968152123799726
            ],
            [
              116.34684884795726,
              39.96815848851664
            ],
            [
              116.34677386659854,
              39.968169074124994
            ],
            [
              116.34669959673916,
              39.96818384731855
            ],
            [
              116.34662627205957,
              39.96820276161537
            ],
            [
              116.34655412326636,
              39.96822575750408
            ],
            [
              116.3464833773663,
              39.9682527626311
            ],
            [
              116.34641425695219,
              39.96828369202833
            ],
            [
              116.3463469795024,
              39.96831844838042
            ],
            [
              116.3462817566967,
              39.96835692233104
            ],
            [
              116.34621879375015,
              39.9683989928269
            ],
            [
              116.34615828876748,
              39.96844452749866
            ],
            [
              116.34610043211975,
              39.9684933830774
            ],
            [
              116.34604540584539,
              39.9685454058454
            ],
            [
              116.3459933830774,
              39.968600432119764
            ],
            [
              116.34594452749866,
              39.968658288767486
            ],
            [
              116.3458989928269,
              39.968718793750156
            ],
            [
              116.34585692233104,
              39.9687817566967
            ],
            [
              116.34581844838041,
              39.9688469795024
            ],
            [
              116.34578369202832,
              39.96891425695219
            ],
            [
              116.34575276263111,
              39.96898337736631
            ],
            [
              116.34572575750408,
              39.96905412326636
            ],
            [
              116.34570276161537,
              39.969126272059576
            ],
            [
              116.34568384731855,
              39.96919959673915
            ],
            [
              116.345669074125,
              39.969273866598535
            ],
            [
              116.34565848851663,
              39.96934884795726
            ],
            [
              116.34565212379972,
              39.96942430489623
            ],
            [
              116.34564999999999,
              39.9695
            ],
            [
              116.34565212379972,
              39.969575695103764
            ],
            [
              116.34565848851663,
              39.969651152042736
            ],
            [
              116.345669074125,
              39.96972613340146
            ],
            [
              116.34568384731855,
              39.96980040326084
            ],
            [
              116.34570276161537,
              39.96987372794042
            ],
            [
              116.34572575750408,
              39.96994587673363
            ],
            [
              116.34575276263111,
              39.970016622633686
            ],
            [
              116.34578369202832,
              39.970085743047804
            ],
            [
              116.34581844838041,
              39.97015302049759
            ],
            [
              116.34585692233104,
              39.97021824330329
            ],
            [
              116.3458989928269,
              39.97028120624984
            ],
            [
              116.34594452749866,
              39.97034171123251
            ],
            [
              116.3459933830774,
              39.97039956788023
            ],
            [
              116.34604540584539,
              39.970454594154596
            ],
            [
              116.34610043211975,
              39.97050661692259
            ],
            [
              116.34615828876748,
              39.97055547250133
            ],
            [
              116.34621879375015,
              39.970601007173094
            ],
            [
              116.3462817566967,
              39.97064307766895
            ],
            [
              116.3463469795024,
              39.97068155161957
            ],
            [
              116.34641425695219,
              39.970716307971664
            ],
            [
              116.3464833773663,
              39.97074723736889
            ],
            [
              116.34655412326636,
              39.970774242495914
            ],
            [
              116.34662627205957,
              39.97079723838462
            ],
            [
              116.34669959673916,
              39.970816152681444
            ],
            [
              116.34677386659854,
              39.970830925875
            ],
            [
              116.34684884795726,
              39.97084151148335
            ],
            [
              116.34692430489622,
              39.97084787620027
            ],
            [
              116.347,
              39.97085
            ],
            [
              116.34707569510377,
              39.97084787620027
            ],
            [
              116.34715115204273,
              39.97084151148335
            ],
            [
              116.34722613340145,
              39.970830925875
            ],
            [
              116.34730040326083,
              39.970816152681444
            ],
            [
              116.34737372794042,
              39.97079723838462
            ],
            [
              116.34744587673363,
              39.970774242495914
            ],
            [
              116.34751662263369,
              39.97074723736889
            ],
            [
              116.3475857430478,
              39.970716307971664
            ],
            [
              116.34765302049759,
              39.97068155161957
            ],
            [
              116.34771824330329,
              39.97064307766895
            ],
            [
              116.34778120624983,
              39.970601007173094
            ],
            [
              116.3478417112325,
              39.97055547250133
            ],
            [
              116.34789956788023,
              39.97050661692259
            ],
            [
              116.3479545941546,
              39.970454594154596
            ],
            [
              116.34800661692259,
              39.97039956788023
            ],
            [
              116.34805547250133,
              39.97034171123251
            ],
            [
              116.34810100717309,
              39.97028120624984
            ],
            [
              116.34814307766895,
              39.97021824330329
            ],
            [
              116.34818155161958,
              39.97015302049759
            ],
            [
              116.34821630797167,
              39.970085743047804
            ],
            [
              116.34824723736888,
              39.970016622633686
            ],
            [
              116.3482742424959,
              39.96994587673363
            ],
            [
              116.34829723838462,
              39.96987372794042
            ],
            [
              116.34831615268143,
              39.96980040326084
            ],
            [
              116.34833092587499,
              39.96972613340146
            ],
            [
              116.34834151148335,
              39.969651152042736
            ],
            [
              116.34834787620026,
              39.969575695103764
            ],
            [
              116.34835,
              39.9695
            ],
            [
              116.34834787620026,
              39.96942430489623
            ]
          ]
        ]
      }
    },
    {
      "type": "Feature",
      "id": "PS-005",
      "properties": {
        "id": "PS-005",
        "layer": "PUBLIC_SPACE",
        "source_type": "agent_generated_design",
        "confidence": "medium",
        "geometry_role": "design_proposal",
        "name_zh": "校企转化客厅",
        "design_role": "public_interface_node",
        "usage_note": "概念性公共空间组件，选址与规模需专业团队深化。",
        "area_sqm_declared": 54272.951
      },
      "geometry": {
        "type": "Polygon",
        "coordinates": [
          [
            [
              116.34434787620027,
              39.98792430489623
            ],
            [
              116.34434151148336,
              39.98784884795726
            ],
            [
              116.344330925875,
              39.98777386659854
            ],
            [
              116.34431615268144,
              39.987699596739155
            ],
            [
              116.34429723838463,
              39.98762627205958
            ],
            [
              116.34427424249591,
              39.987554123266364
            ],
            [
              116.34424723736889,
              39.98748337736631
            ],
            [
              116.34421630797168,
              39.98741425695219
            ],
            [
              116.34418155161958,
              39.987346979502405
            ],
            [
              116.34414307766896,
              39.9872817566967
            ],
            [
              116.3441010071731,
              39.98721879375016
            ],
            [
              116.34405547250134,
              39.98715828876749
            ],
            [
              116.3440066169226,
              39.98710043211977
            ],
            [
              116.34395459415461,
              39.9870454058454
            ],
            [
              116.34389956788024,
              39.986993383077404
            ],
            [
              116.34384171123251,
              39.986944527498665
            ],
            [
              116.34378120624984,
              39.9868989928269
            ],
            [
              116.3437182433033,
              39.98685692233104
            ],
            [
              116.3436530204976,
              39.986818448380426
            ],
            [
              116.34358574304781,
              39.98678369202833
            ],
            [
              116.3435166226337,
              39.986752762631106
            ],
            [
              116.34344587673364,
              39.98672575750408
            ],
            [
              116.34337372794043,
              39.986702761615376
            ],
            [
              116.34330040326084,
              39.98668384731855
            ],
            [
              116.34322613340146,
              39.986669074125
            ],
            [
              116.34315115204274,
              39.986658488516646
            ],
            [
              116.34307569510378,
              39.98665212379973
            ],
            [
              116.343,
              39.98665
            ],
            [
              116.34292430489623,
              39.98665212379973
            ],
            [
              116.34284884795727,
              39.986658488516646
            ],
            [
              116.34277386659855,
              39.986669074125
            ],
            [
              116.34269959673917,
              39.98668384731855
            ],
            [
              116.34262627205958,
              39.986702761615376
            ],
            [
              116.34255412326637,
              39.98672575750408
            ],
            [
              116.3424833773663,
              39.986752762631106
            ],
            [
              116.3424142569522,
              39.98678369202833
            ],
            [
              116.34234697950241,
              39.986818448380426
            ],
            [
              116.3422817566967,
              39.98685692233104
            ],
            [
              116.34221879375016,
              39.9868989928269
            ],
            [
              116.3421582887675,
              39.986944527498665
            ],
            [
              116.34210043211976,
              39.986993383077404
            ],
            [
              116.3420454058454,
              39.9870454058454
            ],
            [
              116.34199338307741,
              39.98710043211977
            ],
            [
              116.34194452749867,
              39.98715828876749
            ],
            [
              116.34189899282691,
              39.98721879375016
            ],
            [
              116.34185692233105,
              39.9872817566967
            ],
            [
              116.34181844838042,
              39.987346979502405
            ],
            [
              116.34178369202833,
              39.98741425695219
            ],
            [
              116.34175276263112,
              39.98748337736631
            ],
            [
              116.3417257575041,
              39.987554123266364
            ],
            [
              116.34170276161538,
              39.98762627205958
            ],
            [
              116.34168384731856,
              39.987699596739155
            ],
            [
              116.34166907412501,
              39.98777386659854
            ],
            [
              116.34165848851664,
              39.98784884795726
            ],
            [
              116.34165212379973,
              39.98792430489623
            ],
            [
              116.34165,
              39.988
            ],
            [
              116.34165212379973,
              39.98807569510377
            ],
            [
              116.34165848851664,
              39.98815115204274
            ],
            [
              116.34166907412501,
              39.98822613340146
            ],
            [
              116.34168384731856,
              39.988300403260844
            ],
            [
              116.34170276161538,
              39.98837372794042
            ],
            [
              116.3417257575041,
              39.988445876733635
            ],
            [
              116.34175276263112,
              39.98851662263369
            ],
            [
              116.34178369202833,
              39.98858574304781
            ],
            [
              116.34181844838042,
              39.988653020497594
            ],
            [
              116.34185692233105,
              39.988718243303296
            ],
            [
              116.34189899282691,
              39.98878120624984
            ],
            [
              116.34194452749867,
              39.98884171123251
            ],
            [
              116.34199338307741,
              39.98889956788023
            ],
            [
              116.3420454058454,
              39.9889545941546
            ],
            [
              116.34210043211976,
              39.989006616922595
            ],
            [
              116.3421582887675,
              39.989055472501335
            ],
            [
              116.34221879375016,
              39.9891010071731
            ],
            [
              116.3422817566967,
              39.989143077668956
            ],
            [
              116.34234697950241,
              39.98918155161957
            ],
            [
              116.3424142569522,
              39.98921630797167
            ],
            [
              116.3424833773663,
              39.98924723736889
            ],
            [
              116.34255412326637,
              39.98927424249592
            ],
            [
              116.34262627205958,
              39.98929723838462
            ],
            [
              116.34269959673917,
              39.98931615268145
            ],
            [
              116.34277386659855,
              39.989330925875
            ],
            [
              116.34284884795727,
              39.98934151148335
            ],
            [
              116.34292430489623,
              39.98934787620027
            ],
            [
              116.343,
              39.98935
            ],
            [
              116.34307569510378,
              39.98934787620027
            ],
            [
              116.34315115204274,
              39.98934151148335
            ],
            [
              116.34322613340146,
              39.989330925875
            ],
            [
              116.34330040326084,
              39.98931615268145
            ],
            [
              116.34337372794043,
              39.98929723838462
            ],
            [
              116.34344587673364,
              39.98927424249592
            ],
            [
              116.3435166226337,
              39.98924723736889
            ],
            [
              116.34358574304781,
              39.98921630797167
            ],
            [
              116.3436530204976,
              39.98918155161957
            ],
            [
              116.3437182433033,
              39.989143077668956
            ],
            [
              116.34378120624984,
              39.9891010071731
            ],
            [
              116.34384171123251,
              39.989055472501335
            ],
            [
              116.34389956788024,
              39.989006616922595
            ],
            [
              116.34395459415461,
              39.9889545941546
            ],
            [
              116.3440066169226,
              39.98889956788023
            ],
            [
              116.34405547250134,
              39.98884171123251
            ],
            [
              116.3441010071731,
              39.98878120624984
            ],
            [
              116.34414307766896,
              39.988718243303296
            ],
            [
              116.34418155161958,
              39.988653020497594
            ],
            [
              116.34421630797168,
              39.98858574304781
            ],
            [
              116.34424723736889,
              39.98851662263369
            ],
            [
              116.34427424249591,
              39.988445876733635
            ],
            [
              116.34429723838463,
              39.98837372794042
            ],
            [
              116.34431615268144,
              39.988300403260844
            ],
            [
              116.344330925875,
              39.98822613340146
            ],
            [
              116.34434151148336,
              39.98815115204274
            ],
            [
              116.34434787620027,
              39.98807569510377
            ],
            [
              116.34435,
              39.988
            ],
            [
              116.34434787620027,
              39.98792430489623
            ]
          ]
        ]
      }
    },
    {
      "type": "Feature",
      "id": "PS-006",
      "properties": {
        "id": "PS-006",
        "layer": "PUBLIC_SPACE",
        "source_type": "agent_generated_design",
        "confidence": "medium",
        "geometry_role": "design_proposal",
        "name_zh": "社区服务接口",
        "design_role": "public_interface_node",
        "usage_note": "概念性公共空间组件，选址与规模需专业团队深化。",
        "area_sqm_declared": 54288.471
      },
      "geometry": {
        "type": "Polygon",
        "coordinates": [
          [
            [
              116.35364787620027,
              39.967924304896236
            ],
            [
              116.35364151148336,
              39.967848847957264
            ],
            [
              116.353630925875,
              39.96777386659854
            ],
            [
              116.35361615268144,
              39.96769959673916
            ],
            [
              116.35359723838462,
              39.96762627205958
            ],
            [
              116.35357424249591,
              39.96755412326637
            ],
            [
              116.35354723736889,
              39.967483377366314
            ],
            [
              116.35351630797167,
              39.967414256952196
            ],
            [
              116.35348155161958,
              39.96734697950241
            ],
            [
              116.35344307766896,
              39.96728175669671
            ],
            [
              116.35340100717309,
              39.96721879375016
            ],
            [
              116.35335547250133,
              39.96715828876749
            ],
            [
              116.3533066169226,
              39.96710043211977
            ],
            [
              116.3532545941546,
              39.967045405845404
            ],
            [
              116.35319956788024,
              39.96699338307741
            ],
            [
              116.35314171123251,
              39.96694452749867
            ],
            [
              116.35308120624984,
              39.966898992826906
            ],
            [
              116.3530182433033,
              39.96685692233105
            ],
            [
              116.3529530204976,
              39.96681844838043
            ],
            [
              116.3528857430478,
              39.966783692028336
            ],
            [
              116.3528166226337,
              39.96675276263111
            ],
            [
              116.35274587673364,
              39.966725757504086
            ],
            [
              116.35267372794043,
              39.96670276161538
            ],
            [
              116.35260040326084,
              39.966683847318556
            ],
            [
              116.35252613340145,
              39.966669074125
            ],
            [
              116.35245115204273,
              39.96665848851665
            ],
            [
              116.35237569510377,
              39.96665212379973
            ],
            [
              116.3523,
              39.96665
            ],
            [
              116.35222430489623,
              39.96665212379973
            ],
            [
              116.35214884795727,
              39.96665848851665
            ],
            [
              116.35207386659854,
              39.966669074125
            ],
            [
              116.35199959673916,
              39.966683847318556
            ],
            [
              116.35192627205957,
              39.96670276161538
            ],
            [
              116.35185412326636,
              39.966725757504086
            ],
            [
              116.3517833773663,
              39.96675276263111
            ],
            [
              116.35171425695219,
              39.966783692028336
            ],
            [
              116.3516469795024,
              39.96681844838043
            ],
            [
              116.3515817566967,
              39.96685692233105
            ],
            [
              116.35151879375016,
              39.966898992826906
            ],
            [
              116.35145828876749,
              39.96694452749867
            ],
            [
              116.35140043211976,
              39.96699338307741
            ],
            [
              116.3513454058454,
              39.967045405845404
            ],
            [
              116.3512933830774,
              39.96710043211977
            ],
            [
              116.35124452749866,
              39.96715828876749
            ],
            [
              116.35119899282691,
              39.96721879375016
            ],
            [
              116.35115692233104,
              39.96728175669671
            ],
            [
              116.35111844838042,
              39.96734697950241
            ],
            [
              116.35108369202833,
              39.967414256952196
            ],
            [
              116.35105276263111,
              39.967483377366314
            ],
            [
              116.35102575750409,
              39.96755412326637
            ],
            [
              116.35100276161538,
              39.96762627205958
            ],
            [
              116.35098384731856,
              39.96769959673916
            ],
            [
              116.350969074125,
              39.96777386659854
            ],
            [
              116.35095848851664,
              39.967848847957264
            ],
            [
              116.35095212379973,
              39.967924304896236
            ],
            [
              116.35095,
              39.968
            ],
            [
              116.35095212379973,
              39.96807569510377
            ],
            [
              116.35095848851664,
              39.96815115204274
            ],
            [
              116.350969074125,
              39.968226133401465
            ],
            [
              116.35098384731856,
              39.96830040326085
            ],
            [
              116.35100276161538,
              39.968373727940424
            ],
            [
              116.35102575750409,
              39.96844587673364
            ],
            [
              116.35105276263111,
              39.96851662263369
            ],
            [
              116.35108369202833,
              39.96858574304781
            ],
            [
              116.35111844838042,
              39.9686530204976
            ],
            [
              116.35115692233104,
              39.9687182433033
            ],
            [
              116.35119899282691,
              39.968781206249844
            ],
            [
              116.35124452749866,
              39.968841711232514
            ],
            [
              116.3512933830774,
              39.968899567880236
            ],
            [
              116.3513454058454,
              39.9689545941546
            ],
            [
              116.35140043211976,
              39.9690066169226
            ],
            [
              116.35145828876749,
              39.96905547250134
            ],
            [
              116.35151879375016,
              39.9691010071731
            ],
            [
              116.3515817566967,
              39.96914307766896
            ],
            [
              116.3516469795024,
              39.96918155161958
            ],
            [
              116.35171425695219,
              39.96921630797167
            ],
            [
              116.3517833773663,
              39.9692472373689
            ],
            [
              116.35185412326636,
              39.96927424249592
            ],
            [
              116.35192627205957,
              39.96929723838463
            ],
            [
              116.35199959673916,
              39.96931615268145
            ],
            [
              116.35207386659854,
              39.969330925875006
            ],
            [
              116.35214884795727,
              39.96934151148336
            ],
            [
              116.35222430489623,
              39.969347876200274
            ],
            [
              116.3523,
              39.969350000000006
            ],
            [
              116.35237569510377,
              39.969347876200274
            ],
            [
              116.35245115204273,
              39.96934151148336
            ],
            [
              116.35252613340145,
              39.969330925875006
            ],
            [
              116.35260040326084,
              39.96931615268145
            ],
            [
              116.35267372794043,
              39.96929723838463
            ],
            [
              116.35274587673364,
              39.96927424249592
            ],
            [
              116.3528166226337,
              39.9692472373689
            ],
            [
              116.3528857430478,
              39.96921630797167
            ],
            [
              116.3529530204976,
              39.96918155161958
            ],
            [
              116.3530182433033,
              39.96914307766896
            ],
            [
              116.35308120624984,
              39.9691010071731
            ],
            [
              116.35314171123251,
              39.96905547250134
            ],
            [
              116.35319956788024,
              39.9690066169226
            ],
            [
              116.3532545941546,
              39.9689545941546
            ],
            [
              116.3533066169226,
              39.968899567880236
            ],
            [
              116.35335547250133,
              39.968841711232514
            ],
            [
              116.35340100717309,
              39.968781206249844
            ],
            [
              116.35344307766896,
              39.9687182433033
            ],
            [
              116.35348155161958,
              39.9686530204976
            ],
            [
              116.35351630797167,
              39.96858574304781
            ],
            [
              116.35354723736889,
              39.96851662263369
            ],
            [
              116.35357424249591,
              39.96844587673364
            ],
            [
              116.35359723838462,
              39.968373727940424
            ],
            [
              116.35361615268144,
              39.96830040326085
            ],
            [
              116.353630925875,
              39.968226133401465
            ],
            [
              116.35364151148336,
              39.96815115204274
            ],
            [
              116.35364787620027,
              39.96807569510377
            ],
            [
              116.35365,
              39.968
            ],
            [
              116.35364787620027,
              39.967924304896236
            ]
          ]
        ]
      }
    }
  ]
}
