{
  "type": "FeatureCollection",
  "name": "open_stack_mobility_network",
  "features": [
    {
      "type": "Feature",
      "id": "ROAD-001",
      "properties": {
        "id": "ROAD-001",
        "layer": "ROAD_CENTERLINE",
        "source_type": "agent_generated_design",
        "confidence": "medium",
        "geometry_role": "design_proposal",
        "name_zh": "京张共生慢行脊",
        "road_class": "greenway",
        "design_role": "conceptual_slow_mobility_link",
        "usage_note": "概念线位，不作为道路红线或工程方案。"
      },
      "geometry": {
        "type": "LineString",
        "coordinates": [
          [
            116.347,
            39.94
          ],
          [
            116.3475,
            39.965
          ],
          [
            116.3471,
            39.987
          ],
          [
            116.3478,
            40.007
          ],
          [
            116.3473,
            40.0255
          ]
        ]
      }
    },
    {
      "type": "Feature",
      "id": "ROAD-002",
      "properties": {
        "id": "ROAD-002",
        "layer": "ROAD_CENTERLINE",
        "source_type": "agent_generated_design",
        "confidence": "medium",
        "geometry_role": "design_proposal",
        "name_zh": "北部全栈验证横链",
        "road_class": "cycleway",
        "design_role": "conceptual_slow_mobility_link",
        "usage_note": "概念线位，不作为道路红线或工程方案。"
      },
      "geometry": {
        "type": "LineString",
        "coordinates": [
          [
            116.3425,
            40.014
          ],
          [
            116.3474,
            40.014
          ],
          [
            116.3533,
            40.014
          ]
        ]
      }
    },
    {
      "type": "Feature",
      "id": "ROAD-003",
      "properties": {
        "id": "ROAD-003",
        "layer": "ROAD_CENTERLINE",
        "source_type": "agent_generated_design",
        "confidence": "medium",
        "geometry_role": "design_proposal",
        "name_zh": "原点校研转化横链",
        "road_class": "pedestrian",
        "design_role": "conceptual_slow_mobility_link",
        "usage_note": "概念线位，不作为道路红线或工程方案。"
      },
      "geometry": {
        "type": "LineString",
        "coordinates": [
          [
            116.3415,
            39.988
          ],
          [
            116.3473,
            39.9885
          ],
          [
            116.3532,
            39.988
          ]
        ]
      }
    },
    {
      "type": "Feature",
      "id": "ROAD-004",
      "properties": {
        "id": "ROAD-004",
        "layer": "ROAD_CENTERLINE",
        "source_type": "agent_generated_design",
        "confidence": "medium",
        "geometry_role": "design_proposal",
        "name_zh": "大钟寺站城接驳横链",
        "road_class": "transit_connection",
        "design_role": "conceptual_slow_mobility_link",
        "usage_note": "概念线位，不作为道路红线或工程方案。"
      },
      "geometry": {
        "type": "LineString",
        "coordinates": [
          [
            116.3415,
            39.947
          ],
          [
            116.3473,
            39.947
          ],
          [
            116.3542,
            39.947
          ]
        ]
      }
    },
    {
      "type": "Feature",
      "id": "ROAD-005",
      "properties": {
        "id": "ROAD-005",
        "layer": "ROAD_CENTERLINE",
        "source_type": "agent_generated_design",
        "confidence": "medium",
        "geometry_role": "design_proposal",
        "name_zh": "小月河场景体验环",
        "road_class": "greenway",
        "design_role": "conceptual_slow_mobility_link",
        "usage_note": "概念线位，不作为道路红线或工程方案。"
      },
      "geometry": {
        "type": "LineString",
        "coordinates": [
          [
            116.3422,
            39.967
          ],
          [
            116.343,
            39.975
          ],
          [
            116.3517,
            39.977
          ],
          [
            116.3526,
            39.967
          ],
          [
            116.3472,
            39.962
          ],
          [
            116.3422,
            39.967
          ]
        ]
      }
    }
  ]
}
